#dP2022  2 28  0  0  0.00000000      96 __u+U ITR00 FIT  IAC
## 2199  86400.00000000   900.00000000 59638 0.0000000000000
+  127   C01C02C03C04C05C06C07C08C09C10C11C12C13C14C16C19C20
+        C21C22C23C24C25C26C27C28C29C30C32C33C34C35C36C37C38
+        C39C40C41C42C43C44C45C46C60E01E02E03E04E05E07E08E09
+        E10E11E12E13E14E15E18E19E21E24E25E26E27E30E31E33E34
+        E36G01G02G03G04G05G06G07G08G09G10G11G12G13G14G15G16
+        G17G18G19G20G21G22G23G24G25G26G27G28G29G30G31G32J01
+        J02J03R01R02R03R04R05R06R07R08R09R10R11R12R13R14R15
+        R17R18R19R20R21R22R23R24  0  0  0  0  0  0  0  0  0
++        15 15 14 14 14  9  9  9  8  8  9  9  8  9  9  7  7
++         7  7  7  7  7  7  7  7  7  6  7  8  7  7  7  7  8
++         8  8  7  7  8  7  7  7 18  4  4  4  4  4  4  4  4
++         5  4  4  4  4  5  4  4  4  4  4  4  4  4  4  4  5
++         4  3  4  3  3  4  3  4  4  3  4  4  3  4  4  4  4
++         3  4  3  4  3  3  4  4  3  4  4  4  4  4  4  3  9
++         8  8  7  6  6  5  6 13  6  6  6 13  8  6  7  6  6
++         6  6  7  7  6  7 13  6  0  0  0  0  0  0  0  0  0
%c M  cc GPS ccc cccc cccc cccc cccc ccccc ccccc ccccc ccccc
%c cc cc ccc ccc cccc cccc cccc cccc ccccc ccccc ccccc ccccc
%f  0.0000000  0.000000000  0.00000000000  0.000000000000000
%f  0.0000000  0.000000000  0.00000000000  0.000000000000000
%i    0    0    0    0      0      0      0      0         0
%i    0    0    0    0      0      0      0      0         0
/* INFORMATION & ANALYSIS CENTER (IAC)            RAPID DATA
/* S/V CLOCKS ARE ALIGNED TO GNSS TIME                      
/* G:C1WC2W R:C1PC2P E:C1XC5X C:C2IC6I J:C1CC2S             
/* PCV:IGS14_2196 OL/AL:FES2004  NONE     YN ORB:CoN CLK:CoN
*  2022 02 28 16 45  0.00000000
PC01 -34271.910440  24523.101724    387.543959    -79.051183
PC02   4408.230545  41952.879380    956.340466 999999.999999
PC03 -14880.743723  39430.747710   1283.859393    903.715949
PC04 -39625.365050  14364.771407    321.551844     23.335220
PC05  21948.943784  35992.920441    669.810899   -410.893466
PC06 -18101.805843  36575.501228 -11027.449718    130.697879
PC07  -3461.475250  34611.747895 -23733.583056   -110.091410
PC08 -11094.063944  19524.320137  35679.386721    165.807003
PC09 -11135.537009  35461.548926 -20036.622808   -563.211098
PC10   3351.972915  37396.558537 -18464.036942    139.504466
PC11  19547.971254 -19031.400724   5995.841562   -180.175468
PC12  19160.580031  -3638.212926  19999.955599    681.611344
PC13  -1480.136053  22420.344697  35812.264486   -103.306156
PC14  11101.195348 -12714.953695 -22206.517292    452.429174
PC16 -18874.068337  36492.580367  -9880.805359     92.506652
PC19  -4225.465918  20844.208158  18088.120436    891.492365
PC20 -15352.948985   4282.924059  22926.094436   -833.944808
PC21  17912.646458  15916.667161 -14265.628902   -932.281190
PC22   9765.407208  26004.626503   2539.544370   -958.897253
PC23  -8531.328211 -16164.568518  21081.018169   -951.341067
PC24  26717.095836  -2656.807829   7647.977656   -944.783736
PC25  11768.663058 -14128.031162  20986.947961   -772.710189
PC26  25341.409457   8170.039807  -8433.907126    772.700530
PC27 -15191.140296  -5850.193168 -22686.746281    684.611733
PC28   -675.830424 -20708.430524 -18689.827499     38.058068
PC29 -13655.673963  24095.689309   3444.491684    521.338936
PC30 -20532.715728  12668.294876 -14053.098520    494.263783
PC32 -18061.088078 -15807.879067  14262.045972   -971.567502
PC33   4143.726298 -20848.705566 -18078.258579   -960.989610
PC34  20519.591883 -13439.760615  13271.479279   -458.769105
PC35    738.387146  21172.679111  18176.825183    160.743992
PC36 -12584.883793  13667.300056 -20803.346333   -922.517316
PC37 -24523.247419  -9379.190675   9425.206880   -951.615299
PC38 -18320.195520  20080.115653  32222.222051    214.665894
PC39 -21333.760141  36366.790114  -2778.894852     34.830809
PC40  -6240.514973  31289.427011 -27495.172790    248.322886
PC41  -9627.721946 -26025.674509  -2881.318145   -945.875824
PC42  15764.678788  -3276.967824 -22743.588094   -934.044224
PC43  14128.765709 -23883.124348  -2815.279243   -938.930493
PC44  15333.550446   5642.197504  22609.710921    579.734872
PC45   8854.284677  16019.572859 -21076.804874    692.539014
PC46 -26152.942799   3605.982993  -8983.013510   -192.924219
PC60   7285.096388  41514.602256    954.637548     -0.817608
PE01  22181.833977  19158.800107  -4189.521590   -587.862714
PE02 -22255.791773 -19073.993263   4025.969502    283.228634
PE03 -11804.095784 -19344.858207  19046.806162   -532.532025
PE04  17166.409449  -1751.948147 -24043.547729   -974.526654
PE05    602.139324 -29465.088373   2755.218316   -204.750640
PE07 -12495.095875  22300.134146  14926.391611   -643.666707
PE08 -17029.070469   2293.469473  24103.747070   -487.339610
PE09  12208.613370 -22545.555762 -14798.288732   5344.523275
PE10  26946.507428 -12204.018457   1029.280455   -497.878981
PE11  22301.086147 -17167.846236  -9140.992988   4344.834129
PE12  27154.922358  -5349.792149  10467.234574   4736.676306
PE13 -22714.170076  16969.320375   8531.362718    426.909721
PE14  16257.587183  -2069.753276  18193.212052  -1761.840781
PE15 -27111.882430   5367.412770 -10603.697450    760.565665
PE18 -19098.656475  -6862.449709 -24471.450115  -1738.783066
PE19  10397.398508  21429.116220 -17572.320970   -541.301822
PE21   7260.847964  21187.844512 -19364.215422   -719.834002
PE24  13959.138348 -10206.585290  24009.784449  -1415.580094
PE25  -6988.585621 -21122.881225  19516.561925   -565.191980
PE26  -3909.576673  18425.499463  22842.450697   -858.527094
PE27 -12719.039053  11224.358412 -24257.736956   -242.653752
PE30 -25322.381704  -6223.557822 -14000.644449   -311.040149
PE31  25070.953417   5275.981277  14837.057017   -492.852491
PE33  15487.785063   9372.309915  23424.104963   -459.005134
PE34 -15706.138323  -9195.872191 -23344.573355   -504.275950
PE36   4996.263028 -18524.117904 -22528.780910   -338.756112
PG01  -1206.449899 -14940.614085 -22178.867225    420.200668
PG02 -19004.047046  15665.473894  10773.985616   -651.624035
PG03  -9875.741059 -21089.069577 -12976.662688   -142.378818
PG04   -483.769825 -24730.989473   9566.875124   -186.743126
PG05  -5123.973801  15038.527164  21100.800112    -73.034496
PG06 -25764.165068   5107.033805  -4150.118332    216.085842
PG07 -17823.780587  -8301.830858  18460.150232    313.349084
PG08   5857.559805 -25689.600605    958.305332    -57.986681
PG09  -9186.943100 -17515.307143  17642.778831   -352.106169
PG10  22015.834147   9186.211381 -11838.623363   -333.309616
PG11 -21098.880199  12596.854455  10064.187963    -74.957403
PG12   5640.229067  21239.528479 -15276.074144   -177.883106
PG13 -13188.893376  21807.412157   7022.110500    269.168552
PG14 -21746.387561 -10245.584485 -11378.129649    -89.053914
PG15  -2408.434440  26273.329073   -101.239086    -80.349931
PG16  10140.716629 -10945.188199  21685.815993   -475.139094
PG17 -14597.986008  -1860.993141 -21683.377016    581.133508
PG18  17502.002092   7971.023943  18359.420612    230.288133
PG19 -16392.859947   6103.515174 -20190.321664    124.921113
PG20 -13720.913927   9058.483672  20818.486040    516.500497
PG21   9409.515067 -16853.974050 -17279.041558    158.749542
PG22  16261.980391  -9894.069072 -18043.385567    220.442852
PG23  20753.271936  16585.342262  -1592.007656     -2.791135
PG24  -2538.615403  17177.352209 -20292.489574    271.739782
PG25  16779.385755  20194.836580  -5196.806124    291.911667
PG26  19210.748132  -1552.890187  18319.370660    187.028072
PG27  12319.365372 -20342.502671  11201.219899    137.428032
PG28 -19238.806317  -3545.354952 -17339.644164    390.591944
PG29   5734.294875  19711.445487  16775.779414   -485.781763
PG30 -23701.149422  -2314.145979  12083.555543   -516.091723
PG31  26042.532872  -6179.659315  -1796.030169   -166.827701
PG32  15731.351235  -2849.913627 -21044.380760    -75.994258
PJ01 -27208.792546  24038.278425  26447.949823 999999.999999
PJ02 -25727.881943  15679.205097 -24970.934366     -1.651581
PJ03 -27684.213823  31685.750236   1698.192722     -0.745628
PR01  -2540.988619  19909.176925  15740.192922      7.151466
PR02   7162.053024  24318.824872  -3072.636886    511.077344
PR03  12044.333028  13230.414905 -18160.966534     52.293506
PR04   9846.153901  -5004.522321 -22961.888024    129.790209
PR05   2422.706763 -20451.880599 -15019.924267     88.542655
PR06  -8405.192038 -23711.041173   4140.782357    -35.079705
PR07 -12104.163356 -12424.469150  18723.158042     32.138936
PR08  -9938.158054   5221.334662  22965.323906    -63.783996
PR09 -12393.720908 -12785.580431  18307.762169     41.904772
PR10 -23374.418821  -8891.143348   4800.617742    -80.173951
PR11 -22014.846183    232.017514 -12885.032390     44.675173
PR12  -6690.961654   9389.745362 -22732.425127     17.308345
PR13  11240.036336  12632.110105 -19122.259022    -18.851976
PR14  23799.480298   8508.673809  -3397.345449     74.882965
PR15  21634.897481   -463.441718  13520.395014     97.885797
PR17  13320.935768   1004.770040  21747.639334    505.630119
PR18  19861.033174 -12004.584031  10537.309412    108.804364
PR19  17106.526608 -18177.946212  -5241.602197   -179.845693
PR20   2095.739611 -14244.299475 -21031.997772    -65.799220
PR21 -14150.683860    161.026397 -21215.158050   -281.625059
PR22 -20056.814350  12558.056682  -9669.106899   -167.614236
PR23 -13267.060728  18833.420477  10957.563016    -31.911731
PR24   -879.500985  14254.065854  21152.733436     82.269841
EOF
